{
  "norad_id": 65864,
  "name": "STARLINK-35471",
  "history": [
    {
      "epoch": "2026-03-28T14:23:09.452544",
      "apogee_km": 476.2148074252709,
      "perigee_km": 474.1697739649271,
      "latitude_deg": 49.9515863070968,
      "longitude_deg": 103.94383615977131,
      "semi_major_axis_km": 6853.329290695098,
      "eccentricity": 0.0001492,
      "inclination_deg": 53.1593,
      "raan_deg": 206.1379,
      "arg_perigee_deg": 90.3558,
      "mean_anomaly_deg": 269.7614,
      "mean_motion_rev_day": 15.30207629
    },
    {
      "epoch": "2026-03-29T01:21:32.120928",
      "apogee_km": 476.23326532099236,
      "perigee_km": 474.17452171657897,
      "latitude_deg": 10.01384944789668,
      "longitude_deg": 147.83568992000073,
      "semi_major_axis_km": 6853.340893518785,
      "eccentricity": 0.0001502,
      "inclination_deg": 53.1592,
      "raan_deg": 204.014,
      "arg_perigee_deg": 90.0179,
      "mean_anomaly_deg": 270.0994,
      "mean_motion_rev_day": 15.30203743
    }
  ]
}